OBJECT_NAME,OBJECT_ID,EPOCH,MEAN_MOTION,ECCENTRICITY,INCLINATION,RA_OF_ASC_NODE,ARG_OF_PERICENTER,MEAN_ANOMALY,EPHEMERIS_TYPE,CLASSIFICATION_TYPE,NORAD_CAT_ID,ELEMENT_SET_NO,REV_AT_EPOCH,BSTAR,MEAN_MOTION_DOT,MEAN_MOTION_DDOT
ONEWEB-0365,2021-090N,2026-06-16T10:17:05.768736,13.19724317,.00018057,87.9176,305.1175,101.0189,259.1146,0,U,49291,999,22632,.30820361E-4,.25E-6,0
ONEWEB-0366,2021-090P,2026-06-16T14:21:58.384224,13.14502759,.00019689,87.8962,289.8238,100.2353,259.8999,0,U,49292,999,22748,-.42284281E-3,-.144E-5,0
ONEWEB-0367,2021-090Q,2026-06-16T13:22:14.909664,13.20771228,.00019203,87.9198,274.5659,105.4171,254.7175,0,U,49293,999,22974,.3650111E-3,.161E-5,0
ONEWEB-0368,2021-090R,2026-06-16T12:44:38.942592,13.20770697,.00014189,87.9183,274.5815,83.7918,276.3377,0,U,49294,999,23089,.24051346E-4,.23E-6,0
ONEWEB-0369,2021-090S,2026-06-16T10:10:16.586112,13.19725162,.00017962,87.9168,305.1262,98.2096,261.9241,0,U,49295,999,22631,.12762737E-3,.64E-6,0
ONEWEB-0370,2021-090T,2026-06-16T13:35:33.822816,13.20770891,.00021771,87.9196,274.5638,105.4705,254.6669,0,U,49296,999,22978,.61802366E-4,.38E-6,0
ONEWEB-0371,2021-090U,2026-06-16T08:32:27.854016,13.19724227,.00018621,87.9174,305.1319,102.5189,257.6152,0,U,49297,999,22634,.10822204E-4,.17E-6,0
ONEWEB-0372,2021-090V,2026-06-16T13:20:48.956352,13.20771643,.00019651,87.9196,274.5675,101.4302,258.7052,0,U,49298,999,22975,.23892341E-3,.11E-5,0
ONEWEB-0373,2021-090W,2026-06-16T13:57:23.321952,13.20771519,.00020555,87.9192,274.5627,100.1961,259.9405,0,U,49299,999,23094,-.45957985E-4,-.6E-7,0
ONEWEB-0374,2021-090X,2026-06-16T14:03:42.337152,13.14503351,.00021694,87.8969,289.8169,84.9163,275.2215,0,U,49300,999,22748,-.14645588E-3,-.42E-6,0
ONEWEB-0375,2021-090Y,2026-06-16T08:13:09.391584,13.20771790,.00023048,87.9195,274.6021,87.5551,272.5846,0,U,49301,999,23041,.15681993E-3,.77E-6,0
ONEWEB-0376,2021-090Z,2026-06-16T10:19:21.897120,13.19725343,.00017037,87.9175,305.1171,101.6681,258.4643,0,U,49302,999,22635,.18480433E-3,.87E-6,0
ONEWEB-0377,2021-090AA,2026-06-16T13:21:18.177696,13.20717467,.00027927,87.9179,274.5592,92.5232,267.6222,0,U,49303,999,23043,-.258781E-1,-.10488E-3,0
ONEWEB-0378,2021-090AB,2026-06-16T13:50:18.517344,13.20770482,.00019727,87.9191,274.5623,96.1412,263.9946,0,U,49304,999,22970,.2062157E-3,.97E-6,0
ONEWEB-0379,2021-090AC,2026-06-16T13:56:51.022176,13.14502892,.00019081,87.8965,289.8286,96.4810,263.6537,0,U,49305,999,22748,-.83155667E-4,-.18E-6,0
ONEWEB-0380,2021-090AD,2026-06-16T10:14:49.801920,13.19724925,.0002062,87.9171,305.1229,97.1523,262.9844,0,U,49306,999,22632,.11454534E-3,.59E-6,0
ONEWEB-0381,2021-090AE,2026-06-16T07:48:54.701568,13.20772455,.00020886,87.9196,274.6120,93.1066,267.0306,0,U,49307,999,22971,.2761977E-3,.125E-5,0
ONEWEB-0382,2021-090AF,2026-06-16T12:56:46.240512,13.20770377,.00019753,87.9193,274.5635,91.8454,268.2905,0,U,49308,999,22973,.12383811E-3,.63E-6,0
ONEWEB-0383,2021-090AG,2026-06-16T13:47:42.087552,13.14501478,.0001839,87.8969,289.8212,95.5433,264.5907,0,U,49309,999,22751,.4280646E-3,.171E-5,0
ONEWEB-0384,2021-090AH,2026-06-16T12:40:26.916384,13.20812457,.00019508,87.9197,274.6095,86.7170,273.4187,0,U,49310,999,22974,.34451588E-4,.27E-6,0
ONEWEB-0385,2021-090AJ,2026-06-16T12:47:05.269632,13.20772684,.00019908,87.9194,274.5703,94.3960,265.7401,0,U,49311,999,22971,.58924072E-4,.37E-6,0
ONEWEB-0386,2021-090AK,2026-06-16T13:11:20.068512,13.20771587,.00019235,87.9199,274.5579,92.7145,267.4208,0,U,49312,999,22973,.190153E-3,.9E-6,0
ONEWEB-0387,2021-090AL,2026-06-16T12:49:30.818208,13.20772294,.00023092,87.9184,274.5830,96.0142,264.1254,0,U,49313,999,22973,-.93238682E-4,-.25E-6,0
ONEWEB-0388,2021-090AM,2026-06-16T10:08:00.379968,13.19725066,.00018861,87.9168,305.1219,94.4326,265.7022,0,U,49314,999,22631,.13998588E-3,.69E-6,0
ONEWEB-0389,2021-132A,2026-06-16T14:11:22.105248,13.17648672,.00021629,87.9130,5.9867,82.5350,277.6027,0,U,50469,999,21800,.10964498E-3,.55E-6,0
ONEWEB-0390,2021-132B,2026-06-16T14:13:47.919072,13.17648508,.00019822,87.9131,5.9873,94.1511,265.9847,0,U,50470,999,21800,-.21232075E-4,.5E-7,0
ONEWEB-0391,2021-132C,2026-06-16T14:16:13.753632,13.17649031,.00026928,87.9132,5.9967,85.5538,274.5901,0,U,50471,999,21800,.54175021E-4,.34E-6,0
ONEWEB-0392,2021-132D,2026-06-16T13:10:37.850880,13.17649209,.0002199,87.9142,5.9739,83.2665,276.8716,0,U,50472,999,21803,.10878461E-3,.55E-6,0
ONEWEB-0393,2021-132E,2026-06-16T14:24:43.924896,13.17649931,.00020121,87.9132,5.9810,85.1592,274.9769,0,U,50473,999,21803,.19110398E-4,.2E-6,0
ONEWEB-0394,2021-132F,2026-06-16T11:47:11.986080,13.18688118,.00018417,87.9169,335.5803,87.6506,272.4837,0,U,50474,999,22150,.20079155E-3,.92E-6,0
