[
  {
    "name": "ONEWEB-0365",
    "noradId": "49291",
    "line1": "1 49291U 21090N   26167.42853899  .00000025  00000+0  30820-4 0  9990",
    "line2": "2 49291  87.9176 305.1175 0001805 101.0189 259.1146 13.19724317226322"
  },
  {
    "name": "ONEWEB-0366",
    "noradId": "49292",
    "line1": "1 49292U 21090P   26167.59859241 -.00000144  00000+0 -42284-3 0  9996",
    "line2": "2 49292  87.8962 289.8238 0001968 100.2353 259.8999 13.14502759227487"
  },
  {
    "name": "ONEWEB-0367",
    "noradId": "49293",
    "line1": "1 49293U 21090Q   26167.55711701  .00000161  00000+0  36501-3 0  9993",
    "line2": "2 49293  87.9198 274.5659 0001920 105.4171 254.7175 13.20771228229748"
  },
  {
    "name": "ONEWEB-0368",
    "noradId": "49294",
    "line1": "1 49294U 21090R   26167.53100628  .00000023  00000+0  24051-4 0  9997",
    "line2": "2 49294  87.9183 274.5815 0001418  83.7918 276.3377 13.20770697230897"
  },
  {
    "name": "ONEWEB-0369",
    "noradId": "49295",
    "line1": "1 49295U 21090S   26167.42380308  .00000064  00000+0  12763-3 0  9992",
    "line2": "2 49295  87.9168 305.1262 0001796  98.2096 261.9241 13.19725162226312"
  },
  {
    "name": "ONEWEB-0370",
    "noradId": "49296",
    "line1": "1 49296U 21090T   26167.56636369  .00000038  00000+0  61802-4 0  9999",
    "line2": "2 49296  87.9196 274.5638 0002177 105.4705 254.6669 13.20770891229780"
  },
  {
    "name": "ONEWEB-0371",
    "noradId": "49297",
    "line1": "1 49297U 21090U   26167.35587794  .00000017  00000+0  10822-4 0  9997",
    "line2": "2 49297  87.9174 305.1319 0001862 102.5189 257.6152 13.19724227226347"
  },
  {
    "name": "ONEWEB-0372",
    "noradId": "49298",
    "line1": "1 49298U 21090V   26167.55612218  .00000110  00000+0  23892-3 0  9994",
    "line2": "2 49298  87.9196 274.5675 0001965 101.4302 258.7052 13.20771643229750"
  },
  {
    "name": "ONEWEB-0373",
    "noradId": "49299",
    "line1": "1 49299U 21090W   26167.58151993 -.00000006  00000+0 -45958-4 0  9990",
    "line2": "2 49299  87.9192 274.5627 0002055 100.1961 259.9405 13.20771519230942"
  },
  {
    "name": "ONEWEB-0374",
    "noradId": "49300",
    "line1": "1 49300U 21090X   26167.58590668 -.00000042  00000+0 -14646-3 0  9998",
    "line2": "2 49300  87.8969 289.8169 0002169  84.9163 275.2215 13.14503351227480"
  },
  {
    "name": "ONEWEB-0375",
    "noradId": "49301",
    "line1": "1 49301U 21090Y   26167.34246981  .00000077  00000+0  15682-3 0  9996",
    "line2": "2 49301  87.9195 274.6021 0002304  87.5551 272.5846 13.20771790230411"
  },
  {
    "name": "ONEWEB-0376",
    "noradId": "49302",
    "line1": "1 49302U 21090Z   26167.43011455  .00000087  00000+0  18480-3 0  9993",
    "line2": "2 49302  87.9175 305.1171 0001703 101.6681 258.4643 13.19725343226357"
  },
  {
    "name": "ONEWEB-0377",
    "noradId": "49303",
    "line1": "1 49303U 21090AA  26167.55646039 -.00010488  00000+0 -25878-1 0  9994",
    "line2": "2 49303  87.9179 274.5592 0002792  92.5232 267.6222 13.20717467230436"
  },
  {
    "name": "ONEWEB-0378",
    "noradId": "49304",
    "line1": "1 49304U 21090AB  26167.57660321  .00000097  00000+0  20622-3 0  9994",
    "line2": "2 49304  87.9191 274.5623 0001972  96.1412 263.9946 13.20770482229701"
  },
  {
    "name": "ONEWEB-0379",
    "noradId": "49305",
    "line1": "1 49305U 21090AC  26167.58114609 -.00000018  00000+0 -83156-4 0  9996",
    "line2": "2 49305  87.8965 289.8286 0001908  96.4810 263.6537 13.14502892227485"
  },
  {
    "name": "ONEWEB-0380",
    "noradId": "49306",
    "line1": "1 49306U 21090AD  26167.42696530  .00000059  00000+0  11455-3 0  9993",
    "line2": "2 49306  87.9171 305.1229 0002062  97.1523 262.9844 13.19724925226329"
  },
  {
    "name": "ONEWEB-0381",
    "noradId": "49307",
    "line1": "1 49307U 21090AE  26167.32563312  .00000125  00000+0  27620-3 0  9999",
    "line2": "2 49307  87.9196 274.6120 0002088  93.1066 267.0306 13.20772455229711"
  },
  {
    "name": "ONEWEB-0382",
    "noradId": "49308",
    "line1": "1 49308U 21090AF  26167.53942408  .00000063  00000+0  12384-3 0  9992",
    "line2": "2 49308  87.9193 274.5635 0001975  91.8454 268.2905 13.20770377229730"
  },
  {
    "name": "ONEWEB-0383",
    "noradId": "49309",
    "line1": "1 49309U 21090AG  26167.57479268  .00000171  00000+0  42806-3 0  9998",
    "line2": "2 49309  87.8969 289.8212 0001839  95.5433 264.5907 13.14501478227510"
  },
  {
    "name": "ONEWEB-0384",
    "noradId": "49310",
    "line1": "1 49310U 21090AH  26167.52808931  .00000027  00000+0  34452-4 0  9997",
    "line2": "2 49310  87.9197 274.6095 0001950  86.7170 273.4187 13.20812457229746"
  },
  {
    "name": "ONEWEB-0385",
    "noradId": "49311",
    "line1": "1 49311U 21090AJ  26167.53269988  .00000037  00000+0  58924-4 0  9993",
    "line2": "2 49311  87.9194 274.5703 0001990  94.3960 265.7401 13.20772684229712"
  },
  {
    "name": "ONEWEB-0386",
    "noradId": "49312",
    "line1": "1 49312U 21090AK  26167.54953783  .00000090  00000+0  19015-3 0  9994",
    "line2": "2 49312  87.9199 274.5579 0001923  92.7145 267.4208 13.20771587229739"
  },
  {
    "name": "ONEWEB-0387",
    "noradId": "49313",
    "line1": "1 49313U 21090AL  26167.53438447 -.00000025  00000+0 -93239-4 0  9990",
    "line2": "2 49313  87.9184 274.5830 0002309  96.0142 264.1254 13.20772294229738"
  },
  {
    "name": "ONEWEB-0388",
    "noradId": "49314",
    "line1": "1 49314U 21090AM  26167.42222662  .00000069  00000+0  13999-3 0  9999",
    "line2": "2 49314  87.9168 305.1219 0001886  94.4326 265.7022 13.19725066226312"
  },
  {
    "name": "ONEWEB-0389",
    "noradId": "50469",
    "line1": "1 50469U 21132A   26167.59122807  .00000055  00000+0  10964-3 0  9991",
    "line2": "2 50469  87.9130   5.9867 0002162  82.5350 277.6027 13.17648672218000"
  },
  {
    "name": "ONEWEB-0390",
    "noradId": "50470",
    "line1": "1 50470U 21132B   26167.59291573  .00000005  00000+0 -21232-4 0  9997",
    "line2": "2 50470  87.9131   5.9873 0001982  94.1511 265.9847 13.17648508218005"
  },
  {
    "name": "ONEWEB-0391",
    "noradId": "50471",
    "line1": "1 50471U 21132C   26167.59460363  .00000034  00000+0  54175-4 0  9996",
    "line2": "2 50471  87.9132   5.9967 0002692  85.5538 274.5901 13.17649031218002"
  },
  {
    "name": "ONEWEB-0392",
    "noradId": "50472",
    "line1": "1 50472U 21132D   26167.54904920  .00000055  00000+0  10878-3 0  9998",
    "line2": "2 50472  87.9142   5.9739 0002199  83.2665 276.8716 13.17649209218038"
  },
  {
    "name": "ONEWEB-0393",
    "noradId": "50473",
    "line1": "1 50473U 21132E   26167.60050839  .00000020  00000+0  19110-4 0  9998",
    "line2": "2 50473  87.9132   5.9810 0002012  85.1592 274.9769 13.17649931218031"
  },
  {
    "name": "ONEWEB-0394",
    "noradId": "50474",
    "line1": "1 50474U 21132F   26167.49111095  .00000092  00000+0  20079-3 0  9992",
    "line2": "2 50474  87.9169 335.5803 0001841  87.6506 272.4837 13.18688118221503"
  }
]